ONEWEB-0589             
1 54655U 22166P   25166.37183974  .00000039  00000+0  63652-4 0  9991
2 54655  87.9258 317.1516 0001051  80.0965 280.0287 13.21827170123550
ONEWEB-0590             
1 54656U 22166Q   25165.78977606 -.00000026  00000+0 -93657-4 0  9995
2 54656  87.9243 317.2492 0002058  84.7733 275.3635 13.21827185122998
ONEWEB-0591             
1 54657U 22166R   25165.80254661 -.00000045  00000+0 -13934-3 0  9998
2 54657  87.9257 317.2656 0001738  92.1929 267.9404 13.21826439123027
ONEWEB-0592             
1 54658U 22166S   25165.80570020  .00000070  00000+0  13841-3 0  9992
2 54658  87.9252 317.2175 0001763  91.8940 268.2396 13.21826900122909
ONEWEB-0593             
1 54659U 22166T   25166.35922693  .00000141  00000+0  30876-3 0  9997
2 54659  87.9258 317.1454 0001659  93.7532 266.3792 13.21826975123550
ONEWEB-0594             
1 54660U 22166U   25166.15106179  .00000150  00000+0  33212-3 0  9997
2 54660  87.9260 317.1993 0001726  99.8413 260.2916 13.21825051123536
ONEWEB-0595             
1 54661U 22166V   25165.90189477 -.00000006  00000+0 -45046-4 0  9993
2 54661  87.9262 317.2281 0002074  96.2825 263.8545 13.21826084123483
ONEWEB-0596             
1 54662U 22166W   25166.17787458  .00000044  00000+0  74507-4 0  9991
2 54662  87.9259 317.1853 0001866  93.3704 266.7643 13.21826938123520
